IRIDIUM 171             
1 43929U 19002H   25316.59984830  .00000175  00000+0  55275-4 0  9992
2 43929  86.3958  84.4000 0001946 100.8658 259.2757 14.34218385357913
IRIDIUM 170             
1 43930U 19002J   25316.62004942  .00002655  00000+0  41710-3 0  9998
2 43930  86.6072  84.1115 0002144  89.4123 270.7340 14.72247042367392
IRIDIUM 167             
1 43931U 19002K   25316.45396408  .00000302  00000+0  10086-3 0  9990
2 43931  86.3949  84.1990 0001556 102.0432 258.0939 14.34217007357898
IRIDIUM 181             
1 56726U 23068S   25316.93741687  .00000211  00000+0  56652-4 0  9998
2 56726  86.4502 147.1737 0002413 100.5886 259.5587 14.43313069131247
IRIDIUM 177             
1 56727U 23068T   25316.72702888  .00003941  00000+0  51501-3 0  9996
2 56727  86.1961  71.5805 0002172  88.7243 271.4227 14.80235669134344
IRIDIUM 174             
1 56728U 23068U   25316.60769635  .00003916  00000+0  61692-3 0  9991
2 56728  86.6077  84.2420 0002198  86.0921 274.0548 14.72254106134156
IRIDIUM 178             
1 56729U 23068V   25316.71612367  .00001100  00000+0  14134-3 0  9995
2 56729  86.6516 115.8450 0002003  94.8788 265.2662 14.80240161134347
IRIDIUM 179             
1 56730U 23068W   25316.91355959  .00000378  00000+0  46298-4 0  9993
2 56730  86.6758 124.0944 0001875 105.9216 254.2212 14.80235331134378
